NORAD_CAT_ID,OBJECT_NAME,OBJECT_TYPE,EPOCH,MEAN_MOTION,ECCENTRICITY,INCLINATION,RA_OF_ASC_NODE,ARG_OF_PERICENTER,MEAN_ANOMALY,BSTAR,MEAN_MOTION_DOT,MEAN_MOTION_DDOT,TLE_LINE0,TLE_LINE1,TLE_LINE2,SEMIMAJOR_AXIS,PERIOD,APOGEE,PERIGEE,DECAYED
50806.0,STARLINK-3335,PAYLOAD,2023-10-08 21:36:11,15.08848747,0.0001376,53.2167,162.1173,84.3734,275.7415,0.00031689,4.76e-05,0.0,0 STARLINK-3335,1 50806U 22001D   23281.90013569  .00004760  00000-0  31689-3 0  9990,2 50806  53.2167 162.1173 0001376  84.3734 275.7415 15.08848747 97270,6917.854,95.437,540.671,538.767,0.0
50806.0,STARLINK-3335,PAYLOAD,2023-10-09 00:46:57,15.08854225,0.0001497,53.2176,161.5268,96.8934,263.2229,0.00043899,6.708e-05,0.0,0 STARLINK-3335,1 50806U 22001D   23282.03261408  .00006708  00000-0  43899-3 0  9992,2 50806  53.2176 161.5268 0001497  96.8934 263.2229 15.08854225 98568,6917.837,95.437,540.738,538.666,0.0
50806.0,STARLINK-3335,PAYLOAD,2023-10-09 08:43:53,15.08846036,0.0001314,53.2162,160.0365,78.6748,281.4392,0.00025237,3.731e-05,0.0,0 STARLINK-3335,1 50806U 22001D   23282.36381439  .00003731  00000-0  25237-3 0  9994,2 50806  53.2162 160.0365 0001314  78.6748 281.4392 15.08846036 98614,6917.862,95.437,540.636,538.818,0.0
50806.0,STARLINK-3335,PAYLOAD,2023-10-09 21:26:59,15.08834902,0.0001637,53.2178,157.6608,94.5425,265.5755,-8.4502e-05,-1.632e-05,0.0,0 STARLINK-3335,1 50806U 22001D   23282.89373894 -.00001632  00000-0 -84502-4 0  9999,2 50806  53.2178 157.6608 0001637  94.5425 265.5755 15.08834902 98693,6917.896,95.438,540.893,538.629,0.0
50806.0,STARLINK-3335,PAYLOAD,2023-10-10 08:34:40,15.08845648,0.0001339,53.2165,155.5754,80.4217,279.6927,0.00013915,1.928e-05,0.0,0 STARLINK-3335,1 50806U 22001D   23283.35741568  .00001928  00000-0  13915-3 0  9993,2 50806  53.2165 155.5754 0001339  80.4217 279.6927 15.08845648 98764,6917.863,95.437,540.654,538.802,0.0
50806.0,STARLINK-3335,PAYLOAD,2023-10-10 19:42:22,15.08845858,0.000143,53.217,153.4966,88.885,271.2306,0.0002488,3.675e-05,0.0,0 STARLINK-3335,1 50806U 22001D   23283.82109627  .00003675  00000-0  24880-3 0  9993,2 50806  53.2170 153.4966 0001430  88.8850 271.2306 15.08845858 97568,6917.862,95.437,540.717,538.738,0.0
50806.0,STARLINK-3335,PAYLOAD,2023-10-11 08:25:27,15.08840613,0.0001465,53.2154,151.1161,93.5818,266.5341,0.00013221,1.817e-05,0.0,0 STARLINK-3335,1 50806U 22001D   23284.35101770  .00001817  00000-0  13221-3 0  9996,2 50806  53.2154 151.1161 0001465  93.5818 266.5341 15.08840613 98917,6917.879,95.438,540.757,538.73,0.0
50806.0,STARLINK-3335,PAYLOAD,2023-10-12 14:37:47,15.08842017,0.0001365,53.2144,145.4664,86.7129,273.4019,0.00037358,5.663e-05,0.0,0 STARLINK-3335,1 50806U 22001D   23285.60958135  .00005663  00000-0  37358-3 0  9990,2 50806  53.2144 145.4664 0001365  86.7129 273.4019 15.08842017 97837,6917.874,95.437,540.684,538.795,0.0
50806.0,STARLINK-3335,PAYLOAD,2023-10-12 19:23:57,15.08845007,0.0001323,53.2145,144.5742,87.6858,272.4285,0.00051488,7.917e-05,0.0,0 STARLINK-3335,1 50806U 22001D   23285.80830129  .00007917  00000-0  51488-3 0  9998,2 50806  53.2145 144.5742 0001323  87.6858 272.4285 15.08845007 99139,6917.865,95.437,540.645,538.815,0.0
50806.0,STARLINK-3335,PAYLOAD,2023-10-12 20:59:20,15.0884535,0.0001309,53.2146,144.2768,84.6013,275.5129,0.00051471,7.914e-05,0.0,0 STARLINK-3335,1 50806U 22001D   23285.87454104  .00007914  00000-0  51471-3 0  9999,2 50806  53.2146 144.2768 0001309  84.6013 275.5129 15.08845350 97870,6917.864,95.437,540.635,538.823,0.0
50806.0,STARLINK-3335,PAYLOAD,2023-10-13 12:53:11,15.08847253,0.0001365,53.2144,141.3029,91.2712,268.8436,0.0003703,5.611e-05,0.0,0 STARLINK-3335,1 50806U 22001D   23286.53694024  .00005611  00000-0  37030-3 0  9997,2 50806  53.2144 141.3029 0001365  91.2712 268.8436 15.08847253 99241,6917.858,95.437,540.668,538.779,0.0
50806.0,STARLINK-3335,PAYLOAD,2023-10-13 20:50:06,15.08856615,0.0001369,53.2144,139.8159,91.9126,268.2023,0.00056272,8.683e-05,0.0,0 STARLINK-3335,1 50806U 22001D   23286.86813648  .00008683  00000-0  56272-3 0  9999,2 50806  53.2144 139.8159 0001369  91.9126 268.2023 15.08856615 98020,6917.83,95.437,540.642,538.748,0.0
50806.0,STARLINK-3335,PAYLOAD,2023-10-14 14:19:21,15.08849736,0.0001226,53.2142,136.5443,88.0076,272.1056,0.00036115,5.466e-05,0.0,0 STARLINK-3335,1 50806U 22001D   23287.59677627  .00005466  00000-0  36115-3 0  9995,2 50806  53.2142 136.5443 0001226  88.0076 272.1056 15.08849736 98139,6917.851,95.437,540.564,538.868,0.0
50806.0,STARLINK-3335,PAYLOAD,2023-10-14 20:40:53,15.08848427,0.0001053,53.2146,135.3547,87.9838,272.1275,0.00037944,5.757e-05,0.0,0 STARLINK-3335,1 50806U 22001D   23287.86173611  .00005757  00000-0  37944-3 0  9993,2 50806  53.2146 135.3547 0001053  87.9838 272.1275 15.08848427 99441,6917.855,95.437,540.448,538.991,0.0
50806.0,STARLINK-3335,PAYLOAD,2023-10-15 14:10:08,15.08834638,0.0001154,53.2151,132.0819,95.2226,264.8898,-1.1638e-05,-4.73e-06,0.0,0 STARLINK-3335,1 50806U 22001D   23288.59038017 -.00000473  00000-0 -11638-4 0  9999,2 50806  53.2151 132.0819 0001154  95.2226 264.8898 15.08834638 98287,6917.897,95.438,540.56,538.963,0.0
50806.0,STARLINK-3335,PAYLOAD,2023-10-15 20:31:41,15.08838913,0.0001078,53.2153,130.8938,83.8988,276.2127,4.8864e-05,4.9e-06,0.0,0 STARLINK-3335,1 50806U 22001D   23288.85534094  .00000490  00000-0  48864-4 0  9992,2 50806  53.2153 130.8938 0001078  83.8988 276.2127 15.08838913 99597,6917.884,95.438,540.494,539.003,0.0
50806.0,STARLINK-3335,PAYLOAD,2023-10-16 14:00:55,15.08853801,0.0001113,53.2156,127.6217,85.9427,274.1692,0.00030263,4.534e-05,0.0,0 STARLINK-3335,1 50806U 22001D   23289.58397418  .00004534  00000-0  30263-3 0  9996,2 50806  53.2156 127.6217 0001113  85.9427 274.1692 15.08853801 98434,6917.838,95.437,540.473,538.933,0.0
50806.0,STARLINK-3335,PAYLOAD,2023-10-16 17:11:41,15.08849082,9.48e-05,53.2153,127.0273,84.3371,275.7729,0.0002327,3.418e-05,0.0,0 STARLINK-3335,1 50806U 22001D   23289.71645625  .00003418  00000-0  23270-3 0  9997,2 50806  53.2153 127.0273 0000948  84.3371 275.7729 15.08849082 98459,6917.853,95.437,540.373,539.062,0.0
50806.0,STARLINK-3335,PAYLOAD,2023-10-17 23:24:02,15.08836887,0.0001117,53.2155,121.3763,83.0498,277.0621,7.4956e-05,9.05e-06,0.0,0 STARLINK-3335,1 50806U 22001D   23290.97502428  .00000905  00000-0  74956-4 0  9996,2 50806  53.2155 121.3763 0001117  83.0498 277.0621 15.08836887 98643,6917.89,95.438,540.528,538.982,0.0
50806.0,STARLINK-3335,PAYLOAD,2023-10-18 12:07:07,15.08842168,0.0001662,53.2158,118.9982,77.6959,282.4219,0.00012191,1.653e-05,0.0,0 STARLINK-3335,1 50806U 22001D   23291.50494446  .00001653  00000-0  12191-3 0  9999,2 50806  53.2158 118.9982 0001662  77.6959 282.4219 15.08842168 99998,6917.874,95.437,540.889,538.589,0.0
50806.0,STARLINK-3335,PAYLOAD,2023-10-18 15:17:53,15.08844996,0.0001658,53.2149,118.4035,77.8128,282.305,0.00014152,1.965e-05,0.0,0 STARLINK-3335,1 50806U 22001D   23291.63742293  .00001965  00000-0  14152-3 0  9994,2 50806  53.2149 118.4035 0001658  77.8128 282.3050 15.08844996 98742,6917.865,95.437,540.877,538.583,0.0
50806.0,STARLINK-3335,PAYLOAD,2023-10-19 11:57:54,15.08845903,0.0002451,53.2143,114.5383,78.746,281.3808,0.0001789,2.56e-05,0.0,0 STARLINK-3335,1 50806U 22001D   23292.49854474  .00002560  00000-0  17890-3 0  9998,2 50806  53.2143 114.5383 0002451  78.7460 281.3808 15.08845903 98873,6917.862,95.437,541.423,538.032,0.0
50806.0,STARLINK-3335,PAYLOAD,2023-10-19 18:19:26,15.08847351,0.0001867,53.2148,113.3497,76.0864,284.0336,1.1481e-05,-1.05e-06,0.0,0 STARLINK-3335,1 50806U 22001D   23292.76350050 -.00000105  00000-0  11481-4 0  9994,2 50806  53.2148 113.3497 0001867  76.0864 284.0336 15.08847351100183,6917.858,95.437,541.014,538.431,0.0
50806.0,STARLINK-3335,PAYLOAD,2023-10-20 11:48:41,15.08840647,0.0001111,53.2149,110.0783,74.9998,285.1117,9.1169e-05,1.163e-05,0.0,0 STARLINK-3335,1 50806U 22001D   23293.49214347  .00001163  00000-0  91169-4 0  9998,2 50806  53.2149 110.0783 0001111  74.9998 285.1117 15.08840647100295,6917.878,95.438,540.512,538.975,0.0
50806.0,STARLINK-3335,PAYLOAD,2023-10-20 14:59:27,15.08841432,0.0001117,53.2151,109.4841,72.5967,287.5147,7.4347e-05,8.96e-06,0.0,0 STARLINK-3335,1 50806U 22001D   23293.62462303  .00000896  00000-0  74347-4 0  9991,2 50806  53.2151 109.4841 0001117  72.5967 287.5147 15.08841432 99043,6917.876,95.437,540.514,538.968,0.0
50806.0,STARLINK-3335,PAYLOAD,2023-10-21 05:17:55,15.08843283,0.0001084,53.2153,106.8081,69.8776,290.2332,0.00016437,2.329e-05,0.0,0 STARLINK-3335,1 50806U 22001D   23294.22078207  .00002329  00000-0  16437-3 0  9992,2 50806  53.2153 106.8081 0001084  69.8776 290.2332 15.08843283 99135,6917.87,95.437,540.485,538.985,0.0
50806.0,STARLINK-3335,PAYLOAD,2023-10-21 18:01:00,15.08839652,0.0001196,53.2152,104.4291,70.2776,289.8345,7.9428e-05,9.76e-06,0.0,0 STARLINK-3335,1 50806U 22001D   23294.75070383  .00000976  00000-0  79428-4 0  9993,2 50806  53.2152 104.4291 0001196  70.2776 289.8345 15.08839652100485,6917.881,95.438,540.574,538.919,0.0
50806.0,STARLINK-3335,PAYLOAD,2023-10-22 11:30:15,15.08834838,0.0001277,53.2156,101.1566,76.7699,283.3435,7.1124e-06,-1.75e-06,0.0,0 STARLINK-3335,1 50806U 22001D   23295.47934774 -.00000175  00000-0  71124-5 0  9994,2 50806  53.2156 101.1566 0001277  76.7699 283.3435 15.08834838 99323,6917.896,95.438,540.645,538.878,0.0
50806.0,STARLINK-3335,PAYLOAD,2023-10-22 17:51:48,15.08838207,0.0001246,53.2167,99.9663,80.8147,279.2986,3.4761e-05,2.65e-06,0.0,0 STARLINK-3335,1 50806U 22001D   23295.74430615  .00000265  00000-0  34761-4 0  9993,2 50806  53.2167  99.9663 0001246  80.8147 279.2986 15.08838207 99360,6917.886,95.438,540.613,538.889,0.0
50806.0,STARLINK-3335,PAYLOAD,2023-10-23 01:48:43,15.08837256,0.0001335,53.2165,98.4791,82.098,278.0164,2.4908e-05,1.09e-06,0.0,0 STARLINK-3335,1 50806U 22001D   23296.07550716  .00000109  00000-0  24908-4 0  9994,2 50806  53.2165  98.4791 0001335  82.0980 278.0164 15.08837256100688,6917.889,95.438,540.677,538.83,0.0
